NORAD_CAT_ID,OBJECT_NAME,OBJECT_TYPE,EPOCH,MEAN_MOTION,ECCENTRICITY,INCLINATION,RA_OF_ASC_NODE,ARG_OF_PERICENTER,MEAN_ANOMALY,BSTAR,MEAN_MOTION_DOT,MEAN_MOTION_DDOT,TLE_LINE0,TLE_LINE1,TLE_LINE2,SEMIMAJOR_AXIS,PERIOD,APOGEE,PERIGEE,DECAYED
55762.0,STARLINK-5603,PAYLOAD,2024-07-23 11:32:01,14.98326288,0.0002945,69.9997,282.778,264.716,95.3663,5.2195e-05,5.3e-06,0.0,0 STARLINK-5603,1 55762U 23028X   24205.48057755  .00000530  00000-0  52195-4 0  9998,2 55762  69.9997 282.7780 0002945 264.7160  95.3663 14.98326288 77520,6950.204,96.107,574.116,570.023,0.0
55762.0,STARLINK-5603,PAYLOAD,2024-07-24 05:09:30,14.98330348,0.0003026,69.9983,280.9233,262.2038,97.8778,-4.9448e-05,-6.83e-06,0.0,0 STARLINK-5603,1 55762U 23028X   24206.21493854 -.00000683  00000-0 -49448-4 0  9992,2 55762  69.9983 280.9233 0003026 262.2038  97.8778 14.98330348 77634,6950.192,96.107,574.16,569.954,0.0
55762.0,STARLINK-5603,PAYLOAD,2024-07-24 09:57:55,14.98327395,0.0002974,69.9988,280.4201,264.2584,95.8236,-7.7367e-05,-1.016e-05,0.0,0 STARLINK-5603,1 55762U 23028X   24206.41522135 -.00001016  00000-0 -77367-4 0  9991,2 55762  69.9988 280.4201 0002974 264.2584  95.8236 14.98327395 77666,6950.201,96.107,574.133,569.999,0.0
55762.0,STARLINK-5603,PAYLOAD,2024-07-25 05:11:31,14.98331261,0.000325,69.9987,278.4024,268.73,91.3487,3.3476e-05,3.06e-06,0.0,0 STARLINK-5603,1 55762U 23028X   24207.21633518  .00000306  00000-0  33476-4 0  9990,2 55762  69.9987 278.4024 0003250 268.7300  91.3487 14.98331261 77787,6950.189,96.107,574.313,569.795,0.0
55762.0,STARLINK-5603,PAYLOAD,2024-07-25 06:47:39,14.98332768,0.0003227,69.9987,278.2337,268.1736,91.9053,5.0228e-05,5.06e-06,0.0,0 STARLINK-5603,1 55762U 23028X   24207.28309368  .00000506  00000-0  50228-4 0  9996,2 55762  69.9987 278.2337 0003227 268.1736  91.9053 14.98332768 77792,6950.184,96.107,574.292,569.807,0.0
55762.0,STARLINK-5603,PAYLOAD,2024-07-25 14:48:19,14.98336858,0.000309,69.9989,277.3917,266.9371,93.1435,9.1524e-05,9.99e-06,0.0,0 STARLINK-5603,1 55762U 23028X   24207.61688892  .00000999  00000-0  91524-4 0  9995,2 55762  69.9989 277.3917 0003090 266.9371  93.1435 14.98336858 77845,6950.172,96.107,574.184,569.889,0.0
55762.0,STARLINK-5603,PAYLOAD,2024-07-26 05:13:32,14.98330067,0.0002778,69.9996,275.8769,262.1693,97.915,5.9109e-05,6.12e-06,0.0,0 STARLINK-5603,1 55762U 23028X   24208.21773271  .00000612  00000-0  59109-4 0  9993,2 55762  69.9996 275.8769 0002778 262.1693  97.9150 14.98330067 77930,6950.193,96.107,573.988,570.127,0.0
55762.0,STARLINK-5603,PAYLOAD,2024-07-26 10:01:56,14.98330548,0.0002771,69.9996,275.3721,262.2077,97.8767,5.9528e-05,6.17e-06,0.0,0 STARLINK-5603,1 55762U 23028X   24208.41801222  .00000617  00000-0  59528-4 0  9993,2 55762  69.9996 275.3721 0002771 262.2077  97.8767 14.98330548 77963,6950.191,96.107,573.982,570.13,0.0
55762.0,STARLINK-5603,PAYLOAD,2024-07-26 21:14:52,14.98335562,0.0002795,69.9995,274.1937,269.8778,90.2061,1.0171e-05,2.8e-07,0.0,0 STARLINK-5603,1 55762U 23028X   24208.88533002  .00000028  00000-0  10171-4 0  9999,2 55762  69.9995 274.1937 0002795 269.8778  90.2061 14.98335562 78039,6950.176,96.107,573.983,570.098,0.0
55762.0,STARLINK-5603,PAYLOAD,2024-07-27 05:15:33,14.98332306,0.0002769,69.9996,273.353,267.4341,92.6501,-6.1051e-05,-8.21e-06,0.0,0 STARLINK-5603,1 55762U 23028X   24209.21913305 -.00000821  00000-0 -61051-4 0  9991,2 55762  69.9996 273.3530 0002769 267.4341  92.6501 14.98332306 78084,6950.186,96.107,573.975,570.126,0.0
55762.0,STARLINK-5603,PAYLOAD,2024-07-27 06:51:41,14.9833169,0.0002786,69.9996,273.1847,267.3058,92.7782,-6.7325e-05,-8.96e-06,0.0,0 STARLINK-5603,1 55762U 23028X   24209.28589342 -.00000896  00000-0 -67325-4 0  9990,2 55762  69.9996 273.1847 0002786 267.3058  92.7782 14.98331690 78094,6950.188,96.107,573.989,570.116,0.0
55762.0,STARLINK-5603,PAYLOAD,2024-07-27 14:52:21,14.9833075,0.0002815,69.9994,272.3428,267.9972,92.0865,-7.3261e-05,-9.67e-06,0.0,0 STARLINK-5603,1 55762U 23028X   24209.61969384 -.00000967  00000-0 -73261-4 0  9990,2 55762  69.9994 272.3428 0002815 267.9972  92.0865 14.98330750 78149,6950.191,96.107,574.012,570.099,0.0
55762.0,STARLINK-5603,PAYLOAD,2024-07-28 05:17:33,14.98330871,0.0002794,69.9994,270.8284,258.657,101.4275,-8.9165e-06,-1.99e-06,0.0,0 STARLINK-5603,1 55762U 23028X   24210.22053074 -.00000199  00000-0 -89165-5 0  9997,2 55762  69.9994 270.8284 0002794 258.6570 101.4275 14.98330871 78233,6950.19,96.107,573.997,570.113,0.0
55762.0,STARLINK-5603,PAYLOAD,2024-07-28 13:18:14,14.98330104,0.0002836,69.9991,269.9858,266.1561,93.9273,-2.9749e-05,-4.48e-06,0.0,0 STARLINK-5603,1 55762U 23028X   24210.55433206 -.00000448  00000-0 -29749-4 0  9990,2 55762  69.9991 269.9858 0002836 266.1561  93.9273 14.98330104 78284,6950.193,96.107,574.029,570.086,0.0
55762.0,STARLINK-5603,PAYLOAD,2024-07-29 05:19:35,14.98325648,0.0002971,69.9986,268.3017,266.4852,93.5967,2.7999e-05,2.41e-06,0.0,0 STARLINK-5603,1 55762U 23028X   24211.22193288  .00000241  00000-0  27999-4 0  9992,2 55762  69.9986 268.3017 0002971 266.4852  93.5967 14.98325648 78388,6950.206,96.107,574.136,570.006,0.0
55762.0,STARLINK-5603,PAYLOAD,2024-07-29 13:20:15,14.98326721,0.0003042,69.9985,267.4598,266.8757,93.2054,1.132e-05,4.2e-07,0.0,0 STARLINK-5603,1 55762U 23028X   24211.55573337  .00000042  00000-0  11320-4 0  9995,2 55762  69.9985 267.4598 0003042 266.8757  93.2054 14.98326721 78432,6950.203,96.107,574.182,569.954,0.0
55762.0,STARLINK-5603,PAYLOAD,2024-07-29 21:20:55,14.98327409,0.0003171,69.998,266.6173,268.0594,92.0202,6.0512e-06,-2.1e-07,0.0,0 STARLINK-5603,1 55762U 23028X   24211.88953307 -.00000021  00000-0  60512-5 0  9996,2 55762  69.9980 266.6173 0003171 268.0594  92.0202 14.98327409 78484,6950.201,96.107,574.27,569.862,0.0
55762.0,STARLINK-5603,PAYLOAD,2024-07-30 10:09:59,14.98331156,0.0003218,69.998,265.2714,269.4902,90.5888,1.0051e-05,2.7e-07,0.0,0 STARLINK-5603,1 55762U 23028X   24212.42361102  .00000027  00000-0  10051-4 0  9990,2 55762  69.9980 265.2714 0003218 269.4902  90.5888 14.98331156 78566,6950.189,96.107,574.291,569.818,0.0
55762.0,STARLINK-5603,PAYLOAD,2024-07-31 11:48:09,14.9832934,0.0003249,69.9978,262.5784,270.0521,90.0266,-1.5729e-06,-1.12e-06,0.0,0 STARLINK-5603,1 55762U 23028X   24213.49177242 -.00000112  00000-0 -15729-5 0  9993,2 55762  69.9978 262.5784 0003249 270.0521  90.0266 14.98329340 78724,6950.195,96.107,574.318,569.802,0.0
55762.0,STARLINK-5603,PAYLOAD,2024-07-31 13:24:17,14.98329681,0.0003249,69.9978,262.4101,270.0629,90.0157,2.1251e-06,-6.8e-07,0.0,0 STARLINK-5603,1 55762U 23028X   24213.55853212 -.00000068  00000-0  21251-5 0  9994,2 55762  69.9978 262.4101 0003249 270.0629  90.0157 14.98329681 78733,6950.194,96.107,574.317,569.801,0.0
55762.0,STARLINK-5603,PAYLOAD,2024-08-01 11:50:09,14.98336487,0.0003147,69.9979,260.0539,269.3498,90.73,6.0144e-05,6.25e-06,0.0,0 STARLINK-5603,1 55762U 23028X   24214.49316542  .00000625  00000-0  60144-4 0  9999,2 55762  69.9979 260.0539 0003147 269.3498  90.7300 14.98336487 78879,6950.173,96.107,574.225,569.851,0.0
55762.0,STARLINK-5603,PAYLOAD,2024-08-01 13:26:17,14.98337481,0.0003149,69.9979,259.8855,269.4237,90.6562,7.0227e-05,7.45e-06,0.0,0 STARLINK-5603,1 55762U 23028X   24214.55992424  .00000745  00000-0  70227-4 0  9991,2 55762  69.9979 259.8855 0003149 269.4237  90.6562 14.98337481 78885,6950.17,96.107,574.223,569.846,0.0
55762.0,STARLINK-5603,PAYLOAD,2024-08-01 19:50:50,14.98331879,0.0003118,69.998,259.2117,270.5,89.5801,1.1312e-05,4.2e-07,0.0,0 STARLINK-5603,1 55762U 23028X   24214.82696853  .00000042  00000-0  11312-4 0  9998,2 55762  69.9980 259.2117 0003118 270.5000  89.5801 14.98331879 78922,6950.187,96.107,574.219,569.885,0.0
55762.0,STARLINK-5603,PAYLOAD,2024-08-02 03:51:30,14.98328409,0.0003025,69.9981,258.3699,272.1196,87.9617,1.318e-05,6.4e-07,0.0,0 STARLINK-5603,1 55762U 23028X   24215.16077052  .00000064  00000-0  13180-4 0  9999,2 55762  69.9981 258.3699 0003025 272.1196  87.9617 14.98328409 78976,6950.198,96.107,574.165,569.96,0.0
55762.0,STARLINK-5603,PAYLOAD,2024-08-02 13:28:18,14.98329027,0.0003035,69.9982,257.3599,272.0089,88.0722,1.7534e-05,1.16e-06,0.0,0 STARLINK-5603,1 55762U 23028X   24215.56133015  .00000116  00000-0  17534-4 0  9990,2 55762  69.9982 257.3599 0003035 272.0089  88.0722 14.98329027 79030,6950.196,96.107,574.17,569.952,0.0
55762.0,STARLINK-5603,PAYLOAD,2024-08-02 19:52:51,14.98328736,0.0003034,69.9982,256.6864,272.162,87.9192,-7.4191e-07,-1.02e-06,0.0,0 STARLINK-5603,1 55762U 23028X   24215.82837073 -.00000102  00000-0 -74191-6 0  9995,2 55762  69.9982 256.6864 0003034 272.1620  87.9192 14.98328736 79077,6950.197,96.107,574.17,569.953,0.0
55762.0,STARLINK-5603,PAYLOAD,2024-08-03 03:53:31,14.98334108,0.0003008,69.9981,255.8446,267.1957,92.8858,-2.1506e-05,-3.5e-06,0.0,0 STARLINK-5603,1 55762U 23028X   24216.16216718 -.00000350  00000-0 -21506-4 0  9995,2 55762  69.9981 255.8446 0003008 267.1957  92.8858 14.98334108 79121,6950.18,96.107,574.136,569.955,0.0
55762.0,STARLINK-5603,PAYLOAD,2024-08-03 11:54:11,14.98332399,0.0003061,69.998,255.0031,266.3137,93.7672,-4.1134e-05,-5.84e-06,0.0,0 STARLINK-5603,1 55762U 23028X   24216.49596798 -.00000584  00000-0 -41134-4 0  9998,2 55762  69.9980 255.0031 0003061 266.3137  93.7672 14.98332399 79171,6950.185,96.107,574.178,569.923,0.0
55762.0,STARLINK-5603,PAYLOAD,2024-08-03 19:54:51,14.9833245,0.0003086,69.9981,254.1614,266.8664,93.2142,-3.2382e-05,-4.79e-06,0.0,0 STARLINK-5603,1 55762U 23028X   24216.82976701 -.00000479  00000-0 -32382-4 0  9999,2 55762  69.9981 254.1614 0003086 266.8664  93.2142 14.98332450 79227,6950.185,96.107,574.195,569.905,0.0
55762.0,STARLINK-5603,PAYLOAD,2024-08-04 03:55:32,14.98326415,0.0003121,69.998,253.3197,267.1781,92.9021,-7.2596e-06,-1.8e-06,0.0,0 STARLINK-5603,1 55762U 23028X   24217.16357002 -.00000180  00000-0 -72596-5 0  9995,2 55762  69.9980 253.3197 0003121 267.1781  92.9021 14.98326415 79278,6950.204,96.107,574.238,569.9,0.0
